diameter_sigma,id,spkid,full_name,pdes,name,prefix,neo,pha,H,G,M1,M2,K1,K2,PC,diameter,extent,albedo,rot_per,GM,BV,UB,IR,spec_B,spec_T,H_sigma,diameter_sigma,full_name,a,e,i,om,w,q,ad,per_y,data_arc,condition_code,n_obs_used,n_del_obs_used,n_dop_obs_used,H,diameter,extent,albedo,rot_per,GM,BV,UB,IR,spec_B,spec_T,full_name,e,q,i,om,w,ad,tp_cal,per_y,class,data_arc,condition_code,n_obs_used,two_body,A1,A2,A3,DT,M1,K1,M2,K2,PC,diameter,extent,albedo,rot_per,GM,M1,K1,M2,K2,PC,epoch_mjd,a,e,i,om,w,ma,epoch,q,e,i,om,w,tp,sigma_e,sigma_a,sigma_i,sigma_om,sigma_w,sigma_ma,sigma_ad,sigma_n,sigma_tp,sigma_per
,bK17U51Q,3789083,"       (2017 UQ51)","2017 UQ51",,,Y,Y,20.6,,,,,,,,,,,,,,,,,,,"       (2017 UQ51)",1.85590581680266,.4842554784312079,4.280814484472666,49.15409722200445,244.9298379317314,.9571732575636265,2.754638376041694,2.52837857575068,41,6,28,,,20.6,,,,,,,,,,,"       (2017 UQ51)",.4842554784312079,.9571732575636265,4.280814484472666,49.15409722200445,244.9298379317314,2.754638376041694,20191219.6165024,2.52837857575068,APO,41,6,28,,,,,,,,,,,,,,,,,,,,,59000,1.85590581680266,.4842554784312079,4.280814484472666,49.15409722200445,244.9298379317314,63.69104334837284,2459000.5,.9571732575636265,.4842554784312079,4.280814484472666,49.15409722200445,244.9298379317314,2458837.116502434340,.00020766,.00039379,.0023224,.0013012,.011374,.13338,.00058449,.00012407,.29018,.29392
,bK17V00D,3788903,"       (2017 VD)","2017 VD",,,Y,Y,20.8,,,,,,,,,,7.99,,,,,,,,,"       (2017 VD)",2.502290825538719,.8175951165866806,8.382511772411986,225.8561809735405,71.14734402718501,.4564300662986087,4.548151584778829,3.95835624791554,37,6,202,,,20.8,,,,7.99,,,,,,,"       (2017 VD)",.8175951165866806,.4564300662986087,8.382511772411986,225.8561809735405,71.14734402718501,4.548151584778829,20210904.7963360,3.95835624791554,APO,37,6,202,,,,,,,,,,,,,,7.99,,,,,,,59000,2.502290825538719,.8175951165866806,8.382511772411986,225.8561809735405,71.14734402718501,245.013228267248,2459000.5,.4564300662986087,.8175951165866806,8.382511772411986,225.8561809735405,71.14734402718501,2459462.296335991418,6.3528E-5,.00076046,.0008259,.00023217,.00046618,.11223,.0013822,.00011351,.66125,.65908
,bK17V00V,3789080,"       (2017 VV)","2017 VV",,,Y,Y,20.4,,,,,,,,,,,,,,,,,.55963,,"       (2017 VV)",1.808389812552386,.5407587767425502,18.92060143979015,56.31605661970747,244.2589156993016,.8304871496428681,2.786292475461904,2.43190317630704,300,4,77,,,20.4,,,,,,,,,,,"       (2017 VV)",.5407587767425502,.8304871496428681,18.92060143979015,56.31605661970747,244.2589156993016,2.786292475461904,20200123.1412951,2.43190317630704,APO,300,4,77,,,,,,,,,,,,,,,,,,,,,59000,1.808389812552386,.5407587767425502,18.92060143979015,56.31605661970747,244.2589156993016,52.22515749262445,2459000.5,.8304871496428681,.5407587767425502,18.92060143979015,56.31605661970747,244.2589156993016,2458871.641295100705,2.3624E-6,7.365E-6,5.6405E-5,6.6862E-5,8.8972E-5,.0025582,1.1348E-5,2.4759E-6,.0055249,.0054264
,bK17V01J,3789098,"       (2017 VJ1)","2017 VJ1",,,Y,Y,21.6,,,,,,,,,,,,,,,,,,,"       (2017 VJ1)",1.704574455838653,.6021040962891282,26.12046323335893,63.39656430917206,72.44867545392462,.6782431935483885,2.730905718128918,2.22552340633869,28,8,35,,,21.6,,,,,,,,,,,"       (2017 VJ1)",.6021040962891282,.6782431935483885,26.12046323335893,63.39656430917206,72.44867545392462,2.730905718128918,20180120.7166094,2.22552340633869,APO,28,8,35,,,,,,,,,,,,,,,,,,,,,58069,1.704574455838653,.6021040962891282,26.12046323335893,63.39656430917206,72.44867545392462,329.1243316336689,2458069.5,.6782431935483885,.6021040962891282,26.12046323335893,63.39656430917206,72.44867545392462,2458139.216609424057,.00095456,.003387,.038651,.025701,.0022477,.10307,.0054263,.00132,.024948,2.4227
,bK17V01X,3789118,"       (2017 VX1)","2017 VX1",,,Y,Y,20.1,,,,,,,,,,,,,,,,,,,"       (2017 VX1)",1.945505816708406,.5268787952678214,8.680766950864905,299.0481449059727,198.0418381586884,.9204600558145422,2.97055157760227,2.71366980742171,669,1,143,,,20.1,,,,,,,,,,,"       (2017 VX1)",.5268787952678214,.9204600558145422,8.680766950864905,299.0481449059727,198.0418381586884,2.97055157760227,20201029.1037567,2.71366980742171,APO,669,1,143,,,,,,,,,,,,,,,,,,,,,59000,1.945505816708406,.5268787952678214,8.680766950864905,299.0481449059727,198.0418381586884,305.1179234332492,2459000.5,.9204600558145422,.5268787952678214,8.680766950864905,299.0481449059727,198.0418381586884,2459151.603756729120,1.3511E-7,3.3363E-7,6.3371E-6,2.1887E-5,3.6534E-5,8.6029E-5,5.0941E-7,9.3428E-8,.00027569,.00025496
,bK17V12R,3789225,"       (2017 VR12)","2017 VR12",,,Y,Y,20.6,,,,,,,,,,1.37752,,,,,,,,,"       (2017 VR12)",1.369201585404368,.2693184327615365,9.21819353509526,347.2655476642296,180.77189279,1.000450360288653,1.737952810520083,1.60217257053746,3059,0,416,5,1,20.6,,,,1.37752,,,,,,,"       (2017 VR12)",.2693184327615365,1.000450360288653,9.21819353509526,347.2655476642296,180.77189279,1.737952810520083,20191014.6695557,1.60217257053746,APO,3059,0,416,,,,,,,,,,,,,,1.37752,,,,,,,59000,1.369201585404368,.2693184327615365,9.21819353509526,347.2655476642296,180.77189279,141.0797548406872,2459000.5,1.000450360288653,.2693184327615365,9.21819353509526,347.2655476642296,180.77189279,2458771.169555714752,5.1523E-9,1.2331E-8,3.0784E-6,2.1672E-6,9.1344E-6,7.5809E-6,1.5652E-8,8.3107E-9,1.0038E-5,7.9056E-6
,bK17V13W,3789399,"       (2017 VW13)","2017 VW13",,,Y,Y,20.7,,,,,,,,,,,,,,,,,,,"       (2017 VW13)",2.166974257017044,.5556000430323994,11.48376149283998,45.70632824490236,337.0684429333887,.9630032665682725,3.370945247465815,3.18998639153645,118,4,275,,,20.7,,,,,,,,,,,"       (2017 VW13)",.5556000430323994,.9630032665682725,11.48376149283998,45.70632824490236,337.0684429333887,3.370945247465815,20201226.5740173,3.18998639153645,APO,118,4,275,,,,,,,,,,,,,,,,,,,,,59000,2.166974257017044,.5556000430323994,11.48376149283998,45.70632824490236,337.0684429333887,295.2468523733205,2459000.5,.9630032665682725,.5556000430323994,11.48376149283998,45.70632824490236,337.0684429333887,2459210.074017276108,8.5208E-6,4.017E-5,.00011386,2.7298E-5,5.7831E-5,.008219,6.2489E-5,8.5914E-6,.032428,.032398
,bK17V14V,3789420,"       (2017 VV14)","2017 VV14",,,Y,Y,18.4,,,,,,,,,,,,,,,,,,,"       (2017 VV14)",2.238849597151265,.8453757489795256,15.90562800941638,78.01763519899492,234.6624668669458,.3461804421070051,4.131518752195524,3.35000597117037,714,2,86,,,18.4,,,,,,,,,,,"       (2017 VV14)",.8453757489795256,.3461804421070051,15.90562800941638,78.01763519899492,234.6624668669458,4.131518752195524,20201228.7019618,3.35000597117037,APO,714,2,86,,,,,,,,,,,,,,,,,,,,,59000,2.238849597151265,.8453757489795256,15.90562800941638,78.01763519899492,234.6624668669458,297.7138370661867,2459000.5,.3461804421070051,.8453757489795256,15.90562800941638,78.01763519899492,234.6624668669458,2459212.201961758413,1.1164E-7,8.8297E-7,1.0557E-5,4.1814E-5,4.579E-5,.00019814,1.6294E-6,1.7405E-7,.00079671,.00072385
,bK17V15O,3789446,"       (2017 VO15)","2017 VO15",,,Y,Y,19.6,,,,,,,,,,,,,,,,,,,"       (2017 VO15)",1.888630022234968,.4805632710569531,26.07671619859871,80.3989908205838,19.04263023572993,.9810238009333657,2.796236243536571,2.59554483904838,222,3,160,,,19.6,,,,,,,,,,,"       (2017 VO15)",.4805632710569531,.9810238009333657,26.07671619859871,80.3989908205838,19.04263023572993,2.796236243536571,20200721.7626841,2.59554483904838,APO,222,3,160,,,,,,,,,,,,,,,,,,,,,59000,1.888630022234968,.4805632710569531,26.07671619859871,80.3989908205838,19.04263023572993,340.3437562596184,2459000.5,.9810238009333657,.4805632710569531,26.07671619859871,80.3989908205838,19.04263023572993,2459052.262684149524,1.9831E-6,7.1239E-6,4.8977E-5,3.1513E-5,2.1331E-5,.0019308,1.0547E-5,2.1486E-6,.0053774,.0053639
,bK17W02G,3789542,"       (2017 WG2)","2017 WG2",,,Y,Y,20.3,,,,,,,,,,,,,,,,,,,"       (2017 WG2)",1.123965459464048,.5781427055895799,14.53671659657781,101.4000188906214,103.1068042969725,.4741530277402681,1.773777891187829,1.19161963299971,628,3,118,,,20.3,,,,,,,,,,,"       (2017 WG2)",.5781427055895799,.4741530277402681,14.53671659657781,101.4000188906214,103.1068042969725,1.773777891187829,20200717.4115510,1.19161963299971,APO,628,3,118,,,,,,,,,,,,,,,,,,,,,59000,1.123965459464048,.5781427055895799,14.53671659657781,101.4000188906214,103.1068042969725,320.784406750878,2459000.5,.4741530277402681,.5781427055895799,14.53671659657781,101.4000188906214,103.1068042969725,2459047.911551035067,1.2145E-6,5.6471E-7,2.0824E-5,3.0414E-5,5.3891E-5,.0004691,8.9119E-7,6.2336E-7,.00060285,.00032801
,bK17W12X,3789609,"       (2017 WX12)","2017 WX12",,,Y,Y,22.1,,,,,,,,,,16.232,,,,,,,,,"       (2017 WX12)",2.172837086314766,.5624636608099849,12.48845114496274,84.45374414585501,34.23737013782927,.9506951844024617,3.394978988227071,3.20294108393019,118,2,212,4,4,22.1,,,,16.232,,,,,,,"       (2017 WX12)",.5624636608099849,.9506951844024617,12.48845114496274,84.45374414585501,34.23737013782927,3.394978988227071,20210329.2650261,3.20294108393019,APO,118,2,212,,,,,,,,,,,,,,16.232,,,,,,,59000,2.172837086314766,.5624636608099849,12.48845114496274,84.45374414585501,34.23737013782927,266.9853779959852,2459000.5,.9506951844024617,.5624636608099849,12.48845114496274,84.45374414585501,34.23737013782927,2459302.765026055314,2.4061E-7,1.2124E-6,3.9361E-6,2.8668E-6,1.7326E-5,.00022184,1.8943E-6,2.5755E-7,.00097386,.00097913
